OBJECT_NAME,OBJECT_ID,EPOCH,MEAN_MOTION,ECCENTRICITY,INCLINATION,RA_OF_ASC_NODE,ARG_OF_PERICENTER,MEAN_ANOMALY,EPHEMERIS_TYPE,CLASSIFICATION_TYPE,NORAD_CAT_ID,ELEMENT_SET_NO,REV_AT_EPOCH,BSTAR,MEAN_MOTION_DOT,MEAN_MOTION_DDOT
STARLINK-37395,2026-111A,2026-06-19T22:00:01.999584,15.51475659,.00012669,53.1601,138.9678,80.6169,102.3721,0,U,69148,999,599,-.49271383E-1,-.2610911E-1,0
STARLINK-37346,2026-111B,2026-06-19T15:10:22.139616,15.49340045,.00012044,53.1604,141.1277,95.8302,264.2845,0,U,69149,999,462,.63670949E-3,.35161E-3,0
STARLINK-37332,2026-111C,2026-06-19T05:01:37.211808,15.49337530,.00009947,53.1610,143.4752,86.6629,273.4494,0,U,69150,999,455,.593813E-3,.32749E-3,0
STARLINK-37297,2026-111D,2026-06-19T22:00:01.999584,15.49280041,.00014002,53.1597,139.0471,96.9601,46.0969,0,U,69151,999,599,.95883055E-3,.53187E-3,0
STARLINK-37317,2026-111E,2026-06-19T22:00:01.999584,15.44255794,.00016213,53.1607,138.8366,106.5112,139.2278,0,U,69152,999,599,-.58209444E-1,-.2416799E-1,0
STARLINK-37374,2026-111F,2026-06-19T17:47:21.334560,15.49351640,.0002209,53.1580,141.1074,96.3668,263.7593,0,U,69153,999,463,.83904697E-3,.46567E-3,0
STARLINK-37235,2026-111G,2026-06-19T21:23:57.098976,15.49355574,.00026114,53.1605,140.6338,87.6975,272.4333,0,U,69154,999,465,.73607291E-3,.40773E-3,0
STARLINK-37329,2026-111H,2026-06-19T22:00:01.999584,15.47303973,.00017405,53.1599,138.8357,99.1552,147.9447,0,U,69155,999,599,-.55043585E-1,-.2525846E-1,0
STARLINK-37345,2026-111J,2026-06-19T22:00:01.999584,15.45341325,.00016404,53.1600,138.7565,111.4120,173.9348,0,U,69156,999,599,-.57060486E-1,-.2454505E-1,0
STARLINK-37353,2026-111K,2026-06-19T22:00:01.999584,15.45781700,.00014405,53.1599,138.7402,118.2518,175.2561,0,U,69157,999,599,-.56157592E-1,-.2452813E-1,0
STARLINK-37363,2026-111L,2026-06-19T22:00:01.999584,15.47211544,.00014492,53.1611,138.7384,102.4445,191.6238,0,U,69158,999,599,-.54952052E-1,-.251469E-1,0
STARLINK-37343,2026-111M,2026-06-19T22:26:13.952544,15.49261861,.00003724,53.1597,140.1835,89.6195,270.4857,0,U,69159,999,466,.23269406E-2,.130941E-2,0
STARLINK-37328,2026-111N,2026-06-19T22:00:01.999584,15.47037227,.0001308,53.1607,138.6878,129.4685,189.2112,0,U,69160,999,599,-.55128164E-1,-.2508136E-1,0
STARLINK-37311,2026-111P,2026-06-19T22:00:01.999584,15.49402640,.00014872,53.1601,138.7110,108.6792,199.9134,0,U,69161,999,599,-.50099274E-1,-.2481278E-1,0
STARLINK-36286,2026-111Q,2026-06-19T22:00:01.999584,15.49281913,.00017803,53.1600,139.1776,103.2043,334.9735,0,U,69162,999,599,.87884903E-3,.48689E-3,0
STARLINK-37196,2026-111R,2026-06-19T22:00:01.999584,15.50194637,.00014364,53.1606,138.6933,112.0242,204.9616,0,U,69163,999,599,-.30657654E-1,-.1584688E-1,0
STARLINK-36288,2026-111S,2026-06-19T22:00:01.999584,15.49279853,.00010838,53.1599,139.1482,97.9254,354.7621,0,U,69164,999,599,.90390776E-3,.50094E-3,0
STARLINK-37445,2026-111T,2026-06-19T22:00:01.999584,15.49276716,.00007136,53.1603,139.2518,74.5075,326.9252,0,U,69165,999,599,.97649369E-3,.54176E-3,0
STARLINK-37491,2026-111U,2026-06-19T22:00:01.999584,15.49286630,.00010636,53.1598,138.9133,106.5874,102.0153,0,U,69166,999,599,.89151566E-3,.49409E-3,0
STARLINK-37474,2026-111V,2026-06-19T22:00:01.999584,15.52223162,.00008769,53.1602,138.6778,86.2885,238.6540,0,U,69167,999,599,-.5144669E-1,-.2776528E-1,0
STARLINK-37469,2026-111W,2026-06-19T15:06:04.472352,15.49337544,.00011685,53.1594,141.8332,91.5573,268.5570,0,U,69168,999,461,.53108426E-3,.29228E-3,0
STARLINK-37515,2026-111X,2026-06-19T22:00:01.999584,15.49281407,.00011888,53.1596,139.0045,103.0779,60.0683,0,U,69169,999,599,.88105611E-3,.48811E-3,0
STARLINK-37437,2026-111Y,2026-06-19T22:00:01.999584,15.49297044,.00006531,53.1599,138.8156,83.3395,172.6193,0,U,69170,999,599,.91687464E-3,.50855E-3,0
STARLINK-37392,2026-111Z,2026-06-19T22:00:01.999584,15.49289716,.00011523,53.1599,138.9002,104.6526,109.0588,0,U,69171,999,599,.94527177E-3,.52442E-3,0
STARLINK-37472,2026-111AA,2026-06-19T22:17:07.141632,15.49362211,.0000794,53.1601,139.4105,99.1949,260.9150,0,U,69172,999,467,.10067678E-2,.56052E-3,0
STARLINK-37461,2026-111AB,2026-06-19T14:54:23.380416,15.49350581,.00012201,53.1596,141.7813,89.9959,270.1190,0,U,69173,999,461,.1356023E-2,.75815E-3,0
STARLINK-37333,2026-111AC,2026-06-19T22:00:01.999584,15.49302342,.00008217,53.1599,139.1710,96.8470,343.8518,0,U,69174,999,599,.86558177E-3,.47976E-3,0
STARLINK-37385,2026-111AD,2026-06-19T08:31:46.158240,15.49345453,.00006276,53.1598,142.9644,91.7820,268.3261,0,U,69175,999,457,.11664282E-2,.65049E-3,0
STARLINK-37414,2026-111AE,2026-06-19T22:00:01.999584,15.49280401,.00014371,53.1594,138.9768,106.2031,69.6601,0,U,69176,999,599,.86562467E-3,.47942E-3,0
STRIX-7,2026-112A,2026-06-19T21:36:23.393664,15.01444037,.0023051,44.9068,178.1992,62.8627,297.4592,0,U,69177,999,428,.12813641E-3,.1454E-4,0
