STARLINK-37395          
1 69148U 26111A   26170.91668981 -.02610911  00000+0 -49271-1 0  9998
2 69148  53.1601 138.9678 0001266  80.6169 102.3721 15.51475659  5990
STARLINK-37346          
1 69149U 26111B   26170.63220069  .00035161  00000+0  63671-3 0  9995
2 69149  53.1604 141.1277 0001204  95.8302 264.2845 15.49340045  4625
STARLINK-37332          
1 69150U 26111C   26170.20945847  .00032749  00000+0  59381-3 0  9990
2 69150  53.1610 143.4752 0000994  86.6629 273.4494 15.49337530  4551
STARLINK-37297          
1 69151U 26111D   26170.91668981  .00053187  00000+0  95883-3 0  9996
2 69151  53.1597 139.0471 0001400  96.9601  46.0969 15.49280041  5996
STARLINK-37317          
1 69152U 26111E   26170.91668981 -.02416799  00000+0 -58209-1 0  9992
2 69152  53.1607 138.8366 0001621 106.5112 139.2278 15.44255794  5999
STARLINK-37374          
1 69153U 26111F   26170.74121915  .00046567  00000+0  83905-3 0  9996
2 69153  53.1580 141.1074 0002209  96.3668 263.7593 15.49351640  4633
STARLINK-37235          
1 69154U 26111G   26170.89163309  .00040773  00000+0  73607-3 0  9997
2 69154  53.1605 140.6338 0002611  87.6975 272.4333 15.49355574  4651
STARLINK-37329          
1 69155U 26111H   26170.91668981 -.02525846  00000+0 -55044-1 0  9993
2 69155  53.1599 138.8357 0001740  99.1552 147.9447 15.47303973  5999
STARLINK-37345          
1 69156U 26111J   26170.91668981 -.02454505  00000+0 -57060-1 0  9997
2 69156  53.1600 138.7565 0001640 111.4120 173.9348 15.45341325  5991
STARLINK-37353          
1 69157U 26111K   26170.91668981 -.02452813  00000+0 -56158-1 0  9995
2 69157  53.1599 138.7402 0001440 118.2518 175.2561 15.45781700  5990
STARLINK-37363          
1 69158U 26111L   26170.91668981 -.02514690  00000+0 -54952-1 0  9998
2 69158  53.1611 138.7384 0001449 102.4445 191.6238 15.47211544  5997
STARLINK-37343          
1 69159U 26111M   26170.93488371  .00130941  00000+0  23269-2 0  9991
2 69159  53.1597 140.1835 0000372  89.6195 270.4857 15.49261861  4666
STARLINK-37328          
1 69160U 26111N   26170.91668981 -.02508136  00000+0 -55128-1 0  9995
2 69160  53.1607 138.6878 0001308 129.4685 189.2112 15.47037227  5999
STARLINK-37311          
1 69161U 26111P   26170.91668981 -.02481278  00000+0 -50099-1 0  9995
2 69161  53.1601 138.7110 0001487 108.6792 199.9134 15.49402640  5999
STARLINK-36286          
1 69162U 26111Q   26170.91668981  .00048689  00000+0  87885-3 0  9992
2 69162  53.1600 139.1776 0001780 103.2043 334.9735 15.49281913  5994
STARLINK-37196          
1 69163U 26111R   26170.91668981 -.01584688  00000+0 -30658-1 0  9994
2 69163  53.1606 138.6933 0001436 112.0242 204.9616 15.50194637  5999
STARLINK-36288          
1 69164U 26111S   26170.91668981  .00050094  00000+0  90391-3 0  9993
2 69164  53.1599 139.1482 0001083  97.9254 354.7621 15.49279853  5990
STARLINK-37445          
1 69165U 26111T   26170.91668981  .00054176  00000+0  97649-3 0  9992
2 69165  53.1603 139.2518 0000713  74.5075 326.9252 15.49276716  5995
STARLINK-37491          
1 69166U 26111U   26170.91668981  .00049409  00000+0  89152-3 0  9996
2 69166  53.1598 138.9133 0001063 106.5874 102.0153 15.49286630  5999
STARLINK-37474          
1 69167U 26111V   26170.91668981 -.02776528  00000+0 -51447-1 0  9994
2 69167  53.1602 138.6778 0000876  86.2885 238.6540 15.52223162  5996
STARLINK-37469          
1 69168U 26111W   26170.62921843  .00029228  00000+0  53108-3 0  9994
2 69168  53.1594 141.8332 0001168  91.5573 268.5570 15.49337544  4616
STARLINK-37515          
1 69169U 26111X   26170.91668981  .00048811  00000+0  88106-3 0  9993
2 69169  53.1596 139.0045 0001188 103.0779  60.0683 15.49281407  5996
STARLINK-37437          
1 69170U 26111Y   26170.91668981  .00050855  00000+0  91687-3 0  9994
2 69170  53.1599 138.8156 0000653  83.3395 172.6193 15.49297044  5991
STARLINK-37392          
1 69171U 26111Z   26170.91668981  .00052442  00000+0  94527-3 0  9995
2 69171  53.1599 138.9002 0001152 104.6526 109.0588 15.49289716  5990
STARLINK-37472          
1 69172U 26111AA  26170.92855488  .00056052  00000+0  10068-2 0  9995
2 69172  53.1601 139.4105 0000794  99.1949 260.9150 15.49362211  4671
STARLINK-37461          
1 69173U 26111AB  26170.62110394  .00075815  00000+0  13560-2 0  9991
2 69173  53.1596 141.7813 0001220  89.9959 270.1190 15.49350581  4618
STARLINK-37333          
1 69174U 26111AC  26170.91668981  .00047976  00000+0  86558-3 0  9999
2 69174  53.1599 139.1710 0000821  96.8470 343.8518 15.49302342  5996
STARLINK-37385          
1 69175U 26111AD  26170.35539535  .00065049  00000+0  11664-2 0  9996
2 69175  53.1598 142.9644 0000627  91.7820 268.3261 15.49345453  4570
STARLINK-37414          
1 69176U 26111AE  26170.91668981  .00047942  00000+0  86562-3 0  9999
2 69176  53.1594 138.9768 0001437 106.2031  69.6601 15.49280401  5993
STRIX-7                 
1 69177U 26112A   26170.90027076  .00001454  00000+0  12814-3 0  9991
2 69177  44.9068 178.1992 0023051  62.8627 297.4592 15.01444037  4283
